ORBCOMM-X               
1 21576U 91050C   24347.17589481  .00000717  00000+0  22715-3 0  9993
2 21576  98.3700  51.3873 0004348  46.1633 313.9916 14.42970408755366
ORBCOMM FM02            
1 23546U 95017B   24346.88139774  .00010813  00000+0  12468-2 0  9993
2 23546  69.9657 199.5424 0008886 252.3432 107.6750 14.85843247584288
ORBCOMM FM08            
1 25112U 97084A   24346.92496963  .00002704  00000+0  81612-3 0  9999
2 25112  45.0117 186.0263 0005931  29.8846 330.2343 14.44530704414281
ORBCOMM FM11            
1 25114U 97084C   24346.92329088  .00002552  00000+0  77863-3 0  9998
2 25114  45.0117 188.4208 0004633 353.9646   6.1148 14.44152394414394
ORBCOMM FM09            
1 25116U 97084E   24346.90598733  .00002361  00000+0  72456-3 0  9994
2 25116  45.0129 189.0344 0004811 334.9000  25.1617 14.44078195414396
