<?xml version="1.0" encoding="UTF-8"?>
<ndm xmlns:xsi="http://www.w3.org/2001/XMLSchema-instance" xsi:noNamespaceSchemaLocation="https://sanaregistry.org/r/ndmxml_unqualified/ndmxml-2.0.0-master-2.0.xsd">
<omm id="CCSDS_OMM_VERS" version="2.0">
<header><CREATION_DATE/><ORIGINATOR/></header><body><segment><metadata><OBJECT_NAME>ORBCOMM-X</OBJECT_NAME><OBJECT_ID>1991-050C</OBJECT_ID><CENTER_NAME>EARTH</CENTER_NAME><REF_FRAME>TEME</REF_FRAME><TIME_SYSTEM>UTC</TIME_SYSTEM><MEAN_ELEMENT_THEORY>SGP4</MEAN_ELEMENT_THEORY></metadata><data><meanElements><EPOCH>2024-12-12T04:13:17.311584</EPOCH><MEAN_MOTION>14.42970408</MEAN_MOTION><ECCENTRICITY>.0004348</ECCENTRICITY><INCLINATION>98.3700</INCLINATION><RA_OF_ASC_NODE>51.3873</RA_OF_ASC_NODE><ARG_OF_PERICENTER>46.1633</ARG_OF_PERICENTER><MEAN_ANOMALY>313.9916</MEAN_ANOMALY></meanElements><tleParameters><EPHEMERIS_TYPE>0</EPHEMERIS_TYPE><CLASSIFICATION_TYPE>U</CLASSIFICATION_TYPE><NORAD_CAT_ID>21576</NORAD_CAT_ID><ELEMENT_SET_NO>999</ELEMENT_SET_NO><REV_AT_EPOCH>75536</REV_AT_EPOCH><BSTAR>.22715E-3</BSTAR><MEAN_MOTION_DOT>.717E-5</MEAN_MOTION_DOT><MEAN_MOTION_DDOT>0</MEAN_MOTION_DDOT></tleParameters></data></segment></body></omm>
<omm id="CCSDS_OMM_VERS" version="2.0">
<header><CREATION_DATE/><ORIGINATOR/></header><body><segment><metadata><OBJECT_NAME>ORBCOMM FM02</OBJECT_NAME><OBJECT_ID>1995-017B</OBJECT_ID><CENTER_NAME>EARTH</CENTER_NAME><REF_FRAME>TEME</REF_FRAME><TIME_SYSTEM>UTC</TIME_SYSTEM><MEAN_ELEMENT_THEORY>SGP4</MEAN_ELEMENT_THEORY></metadata><data><meanElements><EPOCH>2024-12-11T21:09:12.764736</EPOCH><MEAN_MOTION>14.85843247</MEAN_MOTION><ECCENTRICITY>.0008886</ECCENTRICITY><INCLINATION>69.9657</INCLINATION><RA_OF_ASC_NODE>199.5424</RA_OF_ASC_NODE><ARG_OF_PERICENTER>252.3432</ARG_OF_PERICENTER><MEAN_ANOMALY>107.6750</MEAN_ANOMALY></meanElements><tleParameters><EPHEMERIS_TYPE>0</EPHEMERIS_TYPE><CLASSIFICATION_TYPE>U</CLASSIFICATION_TYPE><NORAD_CAT_ID>23546</NORAD_CAT_ID><ELEMENT_SET_NO>999</ELEMENT_SET_NO><REV_AT_EPOCH>58428</REV_AT_EPOCH><BSTAR>.12468E-2</BSTAR><MEAN_MOTION_DOT>.10813E-3</MEAN_MOTION_DOT><MEAN_MOTION_DDOT>0</MEAN_MOTION_DDOT></tleParameters></data></segment></body></omm>
<omm id="CCSDS_OMM_VERS" version="2.0">
<header><CREATION_DATE/><ORIGINATOR/></header><body><segment><metadata><OBJECT_NAME>ORBCOMM FM08</OBJECT_NAME><OBJECT_ID>1997-084A</OBJECT_ID><CENTER_NAME>EARTH</CENTER_NAME><REF_FRAME>TEME</REF_FRAME><TIME_SYSTEM>UTC</TIME_SYSTEM><MEAN_ELEMENT_THEORY>SGP4</MEAN_ELEMENT_THEORY></metadata><data><meanElements><EPOCH>2024-12-11T22:11:57.376032</EPOCH><MEAN_MOTION>14.44530704</MEAN_MOTION><ECCENTRICITY>.0005931</ECCENTRICITY><INCLINATION>45.0117</INCLINATION><RA_OF_ASC_NODE>186.0263</RA_OF_ASC_NODE><ARG_OF_PERICENTER>29.8846</ARG_OF_PERICENTER><MEAN_ANOMALY>330.2343</MEAN_ANOMALY></meanElements><tleParameters><EPHEMERIS_TYPE>0</EPHEMERIS_TYPE><CLASSIFICATION_TYPE>U</CLASSIFICATION_TYPE><NORAD_CAT_ID>25112</NORAD_CAT_ID><ELEMENT_SET_NO>999</ELEMENT_SET_NO><REV_AT_EPOCH>41428</REV_AT_EPOCH><BSTAR>.81612E-3</BSTAR><MEAN_MOTION_DOT>.2704E-4</MEAN_MOTION_DOT><MEAN_MOTION_DDOT>0</MEAN_MOTION_DDOT></tleParameters></data></segment></body></omm>
<omm id="CCSDS_OMM_VERS" version="2.0">
<header><CREATION_DATE/><ORIGINATOR/></header><body><segment><metadata><OBJECT_NAME>ORBCOMM FM11</OBJECT_NAME><OBJECT_ID>1997-084C</OBJECT_ID><CENTER_NAME>EARTH</CENTER_NAME><REF_FRAME>TEME</REF_FRAME><TIME_SYSTEM>UTC</TIME_SYSTEM><MEAN_ELEMENT_THEORY>SGP4</MEAN_ELEMENT_THEORY></metadata><data><meanElements><EPOCH>2024-12-11T22:09:32.332032</EPOCH><MEAN_MOTION>14.44152394</MEAN_MOTION><ECCENTRICITY>.0004633</ECCENTRICITY><INCLINATION>45.0117</INCLINATION><RA_OF_ASC_NODE>188.4208</RA_OF_ASC_NODE><ARG_OF_PERICENTER>353.9646</ARG_OF_PERICENTER><MEAN_ANOMALY>6.1148</MEAN_ANOMALY></meanElements><tleParameters><EPHEMERIS_TYPE>0</EPHEMERIS_TYPE><CLASSIFICATION_TYPE>U</CLASSIFICATION_TYPE><NORAD_CAT_ID>25114</NORAD_CAT_ID><ELEMENT_SET_NO>999</ELEMENT_SET_NO><REV_AT_EPOCH>41439</REV_AT_EPOCH><BSTAR>.77863E-3</BSTAR><MEAN_MOTION_DOT>.2552E-4</MEAN_MOTION_DOT><MEAN_MOTION_DDOT>0</MEAN_MOTION_DDOT></tleParameters></data></segment></body></omm>
<omm id="CCSDS_OMM_VERS" version="2.0">
<header><CREATION_DATE/><ORIGINATOR/></header><body><segment><metadata><OBJECT_NAME>ORBCOMM FM09</OBJECT_NAME><OBJECT_ID>1997-084E</OBJECT_ID><CENTER_NAME>EARTH</CENTER_NAME><REF_FRAME>TEME</REF_FRAME><TIME_SYSTEM>UTC</TIME_SYSTEM><MEAN_ELEMENT_THEORY>SGP4</MEAN_ELEMENT_THEORY></metadata><data><meanElements><EPOCH>2024-12-11T21:44:37.305312</EPOCH><MEAN_MOTION>14.44078195</MEAN_MOTION><ECCENTRICITY>.0004811</ECCENTRICITY><INCLINATION>45.0129</INCLINATION><RA_OF_ASC_NODE>189.0344</RA_OF_ASC_NODE><ARG_OF_PERICENTER>334.9000</ARG_OF_PERICENTER><MEAN_ANOMALY>25.1617</MEAN_ANOMALY></meanElements><tleParameters><EPHEMERIS_TYPE>0</EPHEMERIS_TYPE><CLASSIFICATION_TYPE>U</CLASSIFICATION_TYPE><NORAD_CAT_ID>25116</NORAD_CAT_ID><ELEMENT_SET_NO>999</ELEMENT_SET_NO><REV_AT_EPOCH>41439</REV_AT_EPOCH><BSTAR>.72456E-3</BSTAR><MEAN_MOTION_DOT>.2361E-4</MEAN_MOTION_DOT><MEAN_MOTION_DDOT>0</MEAN_MOTION_DDOT></tleParameters></data></segment></body></omm>

</ndm>
